OBJECT_NAME,OBJECT_ID,EPOCH,MEAN_MOTION,ECCENTRICITY,INCLINATION,RA_OF_ASC_NODE,ARG_OF_PERICENTER,MEAN_ANOMALY,EPHEMERIS_TYPE,CLASSIFICATION_TYPE,NORAD_CAT_ID,ELEMENT_SET_NO,REV_AT_EPOCH,BSTAR,MEAN_MOTION_DOT,MEAN_MOTION_DDOT
HYSIS,2018-096A,2026-06-17T19:41:30.292800,14.78617892,.0001716,97.9843,235.5632,98.4958,261.6447,0,U,43719,999,40751,.8592E-4,.577E-5,0
KAZSTSAT,2018-099AB,2026-06-17T15:08:57.206688,14.99867394,.0008531,97.4269,200.5392,68.6844,291.5290,0,U,43783,999,41137,.11492E-3,.1369E-4,0
SAUDISAT 5A,2018-102A,2026-06-17T21:14:37.901760,15.28054500,.0011049,97.3065,230.4528,126.9359,233.2894,0,U,43831,999,41578,.16976E-3,.4578E-4,0
SAUDISAT 5B,2018-102C,2026-06-17T20:07:18.960096,15.28310245,.0011722,97.3172,233.4777,129.2727,230.9554,0,U,43833,999,41589,.15947E-3,.4331E-4,0
GAOFEN-10R,2019-066A,2026-06-17T21:30:11.097792,14.83062181,.0006715,98.0498,122.4804,125.5546,234.6294,0,U,44622,999,36248,.11682E-3,.896E-5,0
CARTOSAT-3,2019-081A,2026-06-17T19:34:59.025216,15.19284129,.0013287,97.4302,230.6730,145.8943,214.3148,0,U,44804,999,36356,.12471E-3,.2568E-4,0
GAOFEN-12 01,2019-082A,2026-06-17T19:45:23.077728,14.80458915,.0002254,97.8100,175.1858,69.8155,290.3299,0,U,44819,999,35418,.44164E-4,.287E-5,0
CSG-1,2019-092A,2026-06-17T20:40:31.465056,14.82153692,.0001475,97.8888,352.4541,89.5319,270.6063,0,U,44873,999,35157,.43819E-4,.297E-5,0
NEMO-HD,2020-061F,2026-06-17T20:13:02.390592,15.44605338,.0002244,97.1916,230.7887,80.3322,279.8180,0,U,46277,999,32208,.19396E-3,.8937E-4,0
SENTINEL-6A,2020-086A,2026-06-17T07:40:23.054592,12.80929937,.00079421,66.0395,134.7770,270.2239,89.7866,0,U,46984,999,26034,-.39564604E-4,-.7E-6,0
CAS500-1,2021-022A,2026-06-17T20:28:14.644128,15.20139287,.0003358,97.3899,64.0930,297.3508,62.7385,0,U,47932,999,29086,.24955E-3,.533E-4,0
GAOFEN-12 02,2021-026A,2026-06-17T20:01:24.411648,14.80296503,.0003714,97.9921,167.0122,219.2289,140.8654,0,U,48079,999,28185,.39561E-4,.249E-5,0
PLEIADES NEO 3,2021-034A,2026-06-17T20:39:45.199584,14.81674682,.0001383,97.8934,243.6179,86.2970,273.8401,0,U,48268,999,27775,.90796E-4,.663E-5,0
PLEIADES NEO 4,2021-073E,2026-06-17T19:51:06.676704,14.81676915,.000135,97.8937,243.5804,86.1763,273.9604,0,U,49070,999,26146,.11396E-3,.845E-5,0
LANDSAT 9,2021-088A,2026-06-17T19:32:57.444000,14.57097550,.0001323,98.2281,238.9844,85.9444,274.1905,0,U,49260,999,25109,.71605E-4,.277E-5,0
CSG-2,2022-008A,2026-06-17T19:51:53.254080,14.82157582,.0001494,97.8880,352.4159,84.8512,275.2872,0,U,51444,999,23668,.48809E-4,.336E-5,0
GAOFEN-12 03,2022-069A,2026-06-17T20:44:39.034752,14.80036742,.000208,97.8281,56.7180,101.6833,258.4612,0,U,52912,999,21471,.12789E-3,.917E-5,0
SWOT,2022-173A,2026-06-17T18:34:55.263072,14.00169672,.0000246,77.6106,34.5177,87.1654,272.9525,0,U,54754,999,17923,.12973E-5,-.1E-7,0
GAOFEN-12 04,2023-123A,2026-06-17T21:08:32.308800,14.80230017,.0001782,97.9122,86.8888,82.6866,277.4549,0,U,57654,999,15273,.11118E-3,.794E-5,0
PARS 1,2024-039Q,2026-06-17T21:31:53.747904,15.45737150,.001153,97.4824,149.8393,109.5404,250.7091,0,U,59065,999,12875,.20114E-3,.9654E-4,0
RESURS-P 4,2024-061A,2026-06-17T20:25:22.867104,15.32134772,.0002223,97.2755,116.7382,125.9231,234.2218,0,U,59371,999,12386,.85958E-4,.2591E-4,0
LEGION 1,2024-081A,2026-06-17T19:41:56.061600,15.16671155,.0009417,97.5018,246.6710,15.8076,344.3449,0,U,59625,999,11763,.16687E-3,.3202E-4,0
LEGION 2,2024-081B,2026-06-17T18:50:06.568800,15.16648943,.0010693,97.5019,246.7328,341.5599,18.5245,0,U,59626,999,11763,.14224E-3,.2718E-4,0
ALOS-4 (DAICHI-4),2024-123A,2026-06-17T20:02:10.944096,14.79468388,.0001648,97.9247,265.9996,97.4659,262.6739,0,U,60182,999,10597,.15419E-3,.11E-4,0
LEGION 3,2024-146A,2026-06-17T18:57:24.634944,15.16040991,.0007729,45.0024,27.3229,173.6856,186.4122,0,U,60452,999,10211,.16488E-3,.2962E-4,0
LEGION 4,2024-146B,2026-06-17T19:01:52.182912,15.16035199,.0013717,45.0010,119.2163,311.6408,48.3295,0,U,60453,999,10096,.19948E-3,.3643E-4,0
SENTINEL-2C,2024-157A,2026-06-17T19:14:45.549312,14.30817989,.0001014,98.5692,243.5752,82.1905,277.9393,0,U,60989,999,9307,.51065E-4,.9E-6,0
IONOSFERA-M 1,2024-199A,2026-06-17T19:50:29.060736,14.22754473,.0001966,98.7172,41.9922,109.4568,250.6823,0,U,61735,999,12779,.3894E-4,.43E-6,0
IONOSFERA-M 2,2024-199B,2026-06-17T18:58:35.884704,14.22757697,.0001021,98.7171,41.8671,39.3094,320.8158,0,U,61736,999,13091,.41948E-4,.5E-6,0
PRSC-EO1,2025-012A,2026-06-17T20:25:28.726752,15.17616468,.0004833,97.4224,241.2981,249.3580,110.7136,0,U,62725,999,7829,.26288E-3,.5221E-4,0
BIOMASS,2025-090A,2026-06-17T12:15:30.885696,14.67537521,.00013856,98.0740,355.8232,95.1769,264.9594,0,U,63772,999,6073,.86213135E-4,.441E-5,0
