HYSIS                   
1 43719U 18096A   26168.82048950  .00000577  00000+0  85920-4 0  9993
2 43719  97.9843 235.5632 0001716  98.4958 261.6447 14.78617892407510
KAZSTSAT                
1 43783U 18099AB  26168.63121767  .00001369  00000+0  11492-3 0  9996
2 43783  97.4269 200.5392 0008531  68.6844 291.5290 14.99867394411372
SAUDISAT 5A             
1 43831U 18102A   26168.88516090  .00004578  00000+0  16976-3 0  9996
2 43831  97.3065 230.4528 0011049 126.9359 233.2894 15.28054500415781
SAUDISAT 5B             
1 43833U 18102C   26168.83841389  .00004331  00000+0  15947-3 0  9999
2 43833  97.3172 233.4777 0011722 129.2727 230.9554 15.28310245415894
GAOFEN-10R              
1 44622U 19066A   26168.89596178  .00000896  00000+0  11682-3 0  9999
2 44622  98.0498 122.4804 0006715 125.5546 234.6294 14.83062181362483
CARTOSAT-3              
1 44804U 19081A   26168.81596094  .00002568  00000+0  12471-3 0  9992
2 44804  97.4302 230.6730 0013287 145.8943 214.3148 15.19284129363561
GAOFEN-12 01            
1 44819U 19082A   26168.82318377  .00000287  00000+0  44164-4 0  9997
2 44819  97.8100 175.1858 0002254  69.8155 290.3299 14.80458915354185
CSG-1                   
1 44873U 19092A   26168.86147529  .00000297  00000+0  43819-4 0  9998
2 44873  97.8888 352.4541 0001475  89.5319 270.6063 14.82153692351578
NEMO-HD                 
1 46277U 20061F   26168.84238878  .00008937  00000+0  19396-3 0  9993
2 46277  97.1916 230.7887 0002244  80.3322 279.8180 15.44605338322085
SENTINEL-6A             
1 46984U 20086A   26168.31971128 -.00000070  00000+0 -39565-4 0  9992
2 46984  66.0395 134.7770 0007942 270.2239  89.7866 12.80929937260347
CAS500-1                
1 47932U 21022A   26168.85294727  .00005330  00000+0  24955-3 0  9997
2 47932  97.3899  64.0930 0003358 297.3508  62.7385 15.20139287290861
GAOFEN-12 02            
1 48079U 21026A   26168.83431032  .00000249  00000+0  39561-4 0  9998
2 48079  97.9921 167.0122 0003714 219.2289 140.8654 14.80296503281854
PLEIADES NEO 3          
1 48268U 21034A   26168.86093981  .00000663  00000+0  90796-4 0  9994
2 48268  97.8934 243.6179 0001383  86.2970 273.8401 14.81674682277759
PLEIADES NEO 4          
1 49070U 21073E   26168.82716061  .00000845  00000+0  11396-3 0  9996
2 49070  97.8937 243.5804 0001350  86.1763 273.9604 14.81676915261469
LANDSAT 9               
1 49260U 21088A   26168.81455375  .00000277  00000+0  71605-4 0  9999
2 49260  98.2281 238.9844 0001323  85.9444 274.1905 14.57097550251092
CSG-2                   
1 51444U 22008A   26168.82769970  .00000336  00000+0  48809-4 0  9995
2 51444  97.8880 352.4159 0001494  84.8512 275.2872 14.82157582236686
GAOFEN-12 03            
1 52912U 22069A   26168.86434068  .00000917  00000+0  12789-3 0  9996
2 52912  97.8281  56.7180 0002080 101.6833 258.4612 14.80036742214713
SWOT                    
1 54754U 22173A   26168.77425073 -.00000001  00000+0  12973-5 0  9996
2 54754  77.6106  34.5177 0000246  87.1654 272.9525 14.00169672179234
GAOFEN-12 04            
1 57654U 23123A   26168.88092950  .00000794  00000+0  11118-3 0  9996
2 57654  97.9122  86.8888 0001782  82.6866 277.4549 14.80230017152731
PARS 1                  
1 59065U 24039Q   26168.89714986  .00009654  00000+0  20114-3 0  9992
2 59065  97.4824 149.8393 0011530 109.5404 250.7091 15.45737150128756
RESURS-P 4              
1 59371U 24061A   26168.85095911  .00002591  00000+0  85958-4 0  9994
2 59371  97.2755 116.7382 0002223 125.9231 234.2218 15.32134772123869
LEGION 1                
1 59625U 24081A   26168.82078775  .00003202  00000+0  16687-3 0  9996
2 59625  97.5018 246.6710 0009417  15.8076 344.3449 15.16671155117630
LEGION 2                
1 59626U 24081B   26168.78479825  .00002718  00000+0  14224-3 0  9999
2 59626  97.5019 246.7328 0010693 341.5599  18.5245 15.16648943117638
ALOS-4 (DAICHI-4)       
1 60182U 24123A   26168.83484889  .00001100  00000+0  15419-3 0  9998
2 60182  97.9247 265.9996 0001648  97.4659 262.6739 14.79468388105977
LEGION 3                
1 60452U 24146A   26168.78986846  .00002962  00000+0  16488-3 0  9991
2 60452  45.0024  27.3229 0007729 173.6856 186.4122 15.16040991102115
LEGION 4                
1 60453U 24146B   26168.79296508  .00003643  00000+0  19948-3 0  9993
2 60453  45.0010 119.2163 0013717 311.6408  48.3295 15.16035199100962
SENTINEL-2C             
1 60989U 24157A   26168.80191608  .00000090  00000+0  51065-4 0  9996
2 60989  98.5692 243.5752 0001014  82.1905 277.9393 14.30817989 93071
IONOSFERA-M 1           
1 61735U 24199A   26168.82672524  .00000043  00000+0  38940-4 0  9990
2 61735  98.7172  41.9922 0001966 109.4568 250.6823 14.22754473127791
IONOSFERA-M 2           
1 61736U 24199B   26168.79069311  .00000050  00000+0  41948-4 0  9991
2 61736  98.7171  41.8671 0001021  39.3094 320.8158 14.22757697130918
PRSC-EO1                
1 62725U 25012A   26168.85102693  .00005221  00000+0  26288-3 0  9997
2 62725  97.4224 241.2981 0004833 249.3580 110.7136 15.17616468 78298
BIOMASS                 
1 63772U 25090A   26168.51077414  .00000441  00000+0  86213-4 0  9995
2 63772  98.0740 355.8232 0001385  95.1769 264.9594 14.67537521 60733
